STARLINK-5093           
1 56332U 23058R   24315.90120683 -.00000824  00000+0 -59603-4 0  9993
2 56332  97.6557 314.5826 0001414 128.7436 231.3915 15.01252657 85540
STARLINK-5553           
1 56333U 23058S   24315.75491994  .00003145  00000+0  24935-3 0  9999
2 56333  97.6570 314.4838 0002092  84.9882 275.1581 15.01257982 85528
STARLINK-5548           
1 56334U 23058T   24315.42536813  .00002368  00000+0  18896-3 0  9999
2 56334  97.6572 314.1461 0001906  81.4881 278.6559 15.01250246 85477
STARLINK-5559           
1 56335U 23058U   24315.41636288  .00002925  00000+0  23227-3 0  9999
2 56335  97.6566 314.1642 0002484  97.9739 262.1767 15.01252888 85471
STARLINK-5562           
1 56336U 23058V   24315.76049205  .00000626  00000+0  53340-4 0  9991
2 56336  97.6589 314.4676 0001644  93.3280 266.8132 15.01257809 85526
STARLINK-5561           
1 56337U 23058W   24315.75146213 -.00013542  00000+0 -10502-2 0  9992
2 56337  97.6575 314.4908 0001787 101.2096 258.9329 15.01315831 85522
STARLINK-5554           
1 56338U 23058X   24315.75308147 -.00000210  00000+0 -11736-4 0  9999
2 56338  97.6567 314.4909 0002478  93.5074 266.6433 15.01276024 85524
STARLINK-5552           
1 56339U 23058Y   24315.74568213  .00000002  00000+0  47214-5 0  9999
2 56339  97.6551 314.4997 0003183  86.7009 273.4579 15.01257820 85521
STARLINK-5540           
1 56340U 23058Z   24315.75123520  .00001473  00000+0  11931-3 0  9998
2 56340  97.6558 314.4904 0002074  91.3602 268.7859 15.01240529 85523
STARLINK-5543           
1 56341U 23058AA  24315.41611545  .00000958  00000+0  79138-4 0  9992
2 56341  97.6561 314.1660 0002341  90.0018 270.1474 15.01262284 85474
STARLINK-5955           
1 56342U 23058AB  24315.94748493  .00000983  00000+0  81115-4 0  9990
2 56342  97.6552 314.6942 0003026  85.1326 275.0243 15.01265666 85555
STARLINK-5976           
1 56343U 23058AC  24315.74012516  .00000244  00000+0  23616-4 0  9991
2 56343  97.6558 314.5065 0004058  77.4990 282.6688 15.01255491 85523
STARLINK-5974           
1 56344U 23058AD  24315.74382975  .00000169  00000+0  17725-4 0  9991
2 56344  97.6573 314.5021 0003102  85.2266 274.9313 15.01255814 85523
STARLINK-5979           
1 56345U 23058AE  24315.73827697 -.00000274  00000+0 -16716-4 0  9994
2 56345  97.6547 314.5083 0004590  67.4470 292.7240 15.01253554 85520
STARLINK-5837           
1 56346U 23058AF  24315.47536266  .00001116  00000+0  91440-4 0  9996
2 56346  97.6571 314.2424 0003327  82.7908 277.3694 15.01263344 85482
STARLINK-5829           
1 56347U 23058AG  24315.73641886  .00000824  00000+0  68773-4 0  9999
2 56347  97.6535 314.5112 0004478  71.2602 288.9108 15.01259576 85527
STARLINK-5888           
1 56348U 23058AH  24315.74407733  .00000105  00000+0  12778-4 0  9998
2 56348  97.6561 314.5021 0003159  82.9222 277.2361 15.01252051 85521
STARLINK-5887           
1 56349U 23058AJ  24315.46424887  .00007347  00000+0  57577-3 0  9997
2 56349  97.6533 314.2517 0002881  59.7452 300.4057 15.01275580 85484
STARLINK-5886           
1 56350U 23058AK  24315.46608932  .00001235  00000+0  10072-3 0  9993
2 56350  97.6536 314.2499 0002547  80.4230 279.7282 15.01267460 85488
STARLINK-5891           
1 56351U 23058AL  24315.72901630 -.00000296  00000+0 -18454-4 0  9995
2 56351  97.6524 314.5144 0002155  72.4851 287.6608 15.01235412 85528
STARLINK-5885           
1 56352U 23058AM  24315.46795735  .00000020  00000+0  61927-5 0  9991
2 56352  97.6540 314.2500 0003317  65.0478 295.1091 15.01257483 85481
STARLINK-5874           
1 56353U 23058AN  24315.91594646 -.00026257  00000+0 -20414-2 0  9995
2 56353  97.6555 314.7261 0002749  65.8162 294.3349 15.01367397 85554
STARLINK-5877           
1 56354U 23058AP  24315.73666109 -.00002916  00000+0 -22254-3 0  9991
2 56354  97.6542 314.5089 0004818  63.1282 297.0434 15.01244900 85526
STARLINK-5533           
1 56355U 23058AQ  24315.92341765 -.00000617  00000+0 -43460-4 0  9990
2 56355  97.6516 314.7163 0001578  94.7316 265.4088 15.01251823 85550
STARLINK-5535           
1 56356U 23058AR  24315.45869563  .00000029  00000+0  68795-5 0  9994
2 56356  97.6524 314.2544 0002011  89.8385 270.3070 15.01258413 85482
STARLINK-5538           
1 56357U 23058AS  24315.72370108 -.00000621  00000+0 -43768-4 0  9999
2 56357  97.6532 314.5189 0001774  90.8391 269.3037 15.01255612 85528
STARLINK-5482           
1 56358U 23058AT  24315.72716122 -.00000910  00000+0 -66245-4 0  9996
2 56358  97.6530 314.5150 0002318  59.6027 300.5426 15.01254121 85523
STARLINK-5551           
1 56359U 23058AU  24315.92180429 -.00000798  00000+0 -57534-4 0  9999
2 56359  97.6533 314.7180 0001846  86.9112 273.2323 15.01257909 85557
STARLINK-5549           
1 56360U 23058AV  24315.92155757 -.00004180  00000+0 -32103-3 0  9990
2 56360  97.6535 314.7184 0001681  88.4906 271.6510 15.01256493 85557
STARLINK-5550           
1 56361U 23058AW  24315.71975612  .00002825  00000+0  22459-3 0  9993
2 56361  97.6541 314.5232 0001295  92.9145 267.2227 15.01239880 85527
STARLINK-5972           
1 56362U 23058AX  24315.71789874 -.00000736  00000+0 -52759-4 0  9995
2 56362  97.6537 314.5245 0001116  94.9182 265.2169 15.01253164 85526
STARLINK-6156           
1 56374U 23061A   24315.67407283  .00000853  00000+0  78228-4 0  9995
2 56374  43.0053 307.6897 0000733 262.3564  97.7195 15.02529800 85040
STARLINK-6158           
1 56375U 23061B   24315.26964794  .00003304  00000+0  25950-3 0  9993
2 56375  43.0040 309.8133 0001227 254.9530 105.1177 15.02545134 83885
STARLINK-6188           
1 56376U 23061C   24315.71390576  .00000454  00000+0  48668-4 0  9990
2 56376  43.0015 307.1331 0000785 269.2085  90.8668 15.02551703 83953
STARLINK-6189           
1 56377U 23061D   24315.66518164 -.00002422  00000+0 -16423-3 0  9992
2 56377  43.0042 307.6214 0001217 274.1979  85.8725 15.02543921 83947
STARLINK-6191           
1 56378U 23061E   24315.45575682  .00001321  00000+0  11278-3 0  9996
2 56378  43.0042 308.6309 0000725 265.3026  94.7733 15.02548943 83916
STARLINK-6157           
1 56379U 23061F   24315.25523288  .00018960  00000+0  14144-2 0  9991
2 56379  43.0054 309.7088 0001098 261.0961  98.9757 15.02548355 84179
STARLINK-6161           
1 56380U 23061G   24315.45797923  .00002086  00000+0  16942-3 0  9995
2 56380  43.0048 308.6482 0001033 287.7434  72.3296 15.02541990 83912
STARLINK-6159           
1 56381U 23061H   24315.26187504  .00004253  00000+0  32963-3 0  9992
2 56381  43.0019 309.7529 0001154 265.0623  95.0087 15.02549796 83886
STARLINK-6160           
1 56382U 23061J   24315.71502271 -.00000783  00000+0 -42907-4 0  9991
2 56382  43.0017 307.1337 0000748 304.2661  55.8111 15.02531475 83955
STARLINK-6166           
1 56383U 23061K   24315.71723776  .00030757  00000+0  22794-2 0  9999
2 56383  43.0016 307.1521 0001476 162.1520 197.9375 15.02577749 83958
STARLINK-6153           
1 56384U 23061L   24315.70724680  .00000096  00000+0  22211-4 0  9993
2 56384  43.0053 307.0759 0001636 260.4012  99.6645 15.02536134 83959
STARLINK-6173           
1 56385U 23061M   24315.84464587  .00000112  00000+0  23337-4 0  9995
2 56385  43.0021 306.3867 0000845 278.7176  81.3570 15.02534752 83972
STARLINK-5836           
1 56386U 23061N   24315.70058859 -.00000385  00000+0 -13434-4 0  9993
2 56386  43.0042 307.0245 0001168 261.0601  99.0109 15.02538401 83958
STARLINK-6178           
1 56387U 23061P   24315.70834716  .00003632  00000+0  28372-3 0  9990
2 56387  43.0047 307.0860 0000944 275.8690  84.2045 15.02544560 83957
STARLINK-6176           
1 56388U 23061Q   24315.69171538 -.00001439  00000+0 -91525-4 0  9991
2 56388  43.0032 306.9567 0000755 263.2071  96.8685 15.02527243 83956
STARLINK-6145           
1 56389U 23061R   24315.70391687  .00017429  00000+0  13019-2 0  9997
2 56389  43.0005 307.0503 0001386 249.0418 111.0276 15.02541246 83952
STARLINK-6300           
1 56390U 23061S   24315.63115779  .00021121  00000+0  15738-2 0  9991
2 56390  43.0040 295.2330 0001207 274.9980  85.0724 15.02537271 84088
STARLINK-6298           
1 56391U 23061T   24315.69725836 -.00001512  00000+0 -96929-4 0  9996
2 56391  43.0021 306.9981 0000892 263.7914  96.2826 15.02534109 83951
STARLINK-6301           
1 56392U 23061U   24315.23450483  .00002358  00000+0  18953-3 0  9997
2 56392  43.0034 297.4152 0001162 264.9507  95.1203 15.02539836 84020
STARLINK-6303           
1 56393U 23061V   24315.69391495  .00007561  00000+0  57383-3 0  9996
2 56393  43.0047 306.9733 0001240 249.5456 110.5253 15.02560453 83952
STARLINK-6305           
1 56394U 23061W   24315.35636577 -.00000538  00000+0 -24774-4 0  9991
2 56394  43.0040 296.6105 0001297 270.8271  89.2423 15.02536242 84049
STARLINK-6273           
1 56395U 23061X   24315.35968194  .00005364  00000+0  41156-3 0  9997
2 56395  43.0022 296.6301 0000973 248.5427 111.5312 15.02563119 84750
STARLINK-6302           
1 56396U 23061Y   24315.41728770  .00002991  00000+0  23634-3 0  9993
2 56396  43.0027 296.2068 0001129 267.5292  92.5421 15.02548903 79181
STARLINK-6271           
1 56397U 23061Z   24315.22895673  .00002964  00000+0  23434-3 0  9998
2 56397  43.0056 297.3740 0001494 263.8314  96.2358 15.02542409 84026
STARLINK-6288           
1 56398U 23061AA  24315.67987662 -.00000040  00000+0  12074-4 0  9991
2 56398  43.0014 294.7352 0001286 281.3803  78.6895 15.02535011 84096
STARLINK-6277           
1 56399U 23061AB  24315.35303137  .00001355  00000+0  11534-3 0  9994
2 56399  43.0037 296.5831 0001114 264.6604  95.4111 15.02544007 84045
STARLINK-6267           
1 56400U 23061AC  24315.67431542 -.00001589  00000+0 -10248-3 0  9996
2 56400  43.0046 294.6945 0002413 263.9863  96.0705 15.02550565 84092
STARLINK-6256           
1 56401U 23061AD  24315.61587656 -.00002041  00000+0 -13608-3 0  9996
2 56401  43.0053 282.1049 0001231 252.9795 107.0912 15.02527034 84231
